0 GLOBALSTAR M058
1 25907U 99049A   13282.44892875 -.00000066  00000-0  24248-3 0  2020
2 25907 051.9958 346.2922 0001111 312.1185 114.3041 11.93066716643215
0 GLOBALSTAR M058
1 25907U 99049A   13283.45573690 -.00000060  00000-0  32283-3 0  2036
2 25907 051.9958 343.6046 0001125 314.4902 118.1656 11.93066671643337
0 GLOBALSTAR M058
1 25907U 99049A   13284.46754378 -.00000050  00000-0  45746-3 0  2040
2 25907 051.9956 340.9036 0001157 316.8232 143.5452 11.93066681643451
0 GLOBALSTAR M058
1 25907U 99049A   13285.47343484 -.00000049  00000-0  47638-3 0  2055
2 25907 051.9954 338.2183 0001192 319.1297 143.5313 11.93066717643577
0 GLOBALSTAR M058
1 25907U 99049A   13286.47958751 -.00000049  00000-0  48286-3 0  2066
2 25907 051.9952 335.5322 0001218 321.3426 144.7354 11.93066796643696
0 GLOBALSTAR M058
1 25907U 99049A   13287.49257782 -.00000059  00000-0  34497-3 0  2076
2 25907 051.9950 332.8278 0001238 323.6655 175.2101 11.93066864643814
0 GLOBALSTAR M058
1 25907U 99049A   13288.58052044 -.00000065  00000-0  26552-3 0  2082
2 25907 051.9948 329.9233 0001271 325.8870 167.8550 11.93067017643949
0 GLOBALSTAR M058
1 25907U 99049A   13289.59393451 -.00000073  00000-0  15998-3 0  2096
2 25907 051.9947 327.2177 0001299 328.1552 200.2060 11.93067167644067
0 GLOBALSTAR M058
1 25907U 99049A   13291.07171889 -.00000079  00000-0  76092-4 0  2102
2 25907 051.9945 323.2724 0001327 331.2651 067.1063 11.93067267644240
0 GLOBALSTAR M058
1 25907U 99049A   13292.07669139 -.00000077  00000-0  96651-4 0  2115
2 25907 051.9945 320.5894 0001349 333.2641 063.4550 11.93067259644367
0 GLOBALSTAR M058
1 25907U 99049A   13293.17690828 -.00000075  00000-0  12924-3 0  2125
2 25907 051.9945 317.6522 0001413 335.6674 108.6624 11.93067189644496
0 GLOBALSTAR M058
1 25907U 99049A   13294.44836303 -.00000063  00000-0  28501-3 0  2132
2 25907 051.9944 314.2579 0001455 338.6614 169.0847 11.93067120644643
0 GLOBALSTAR M058
1 25907U 99049A   13295.45964009 -.00000056  00000-0  38810-3 0  2146
2 25907 051.9943 311.5581 0001496 340.8150 192.3691 11.93067115644763
